BEIDOU 4                
1 36590U 10024A   19137.52622017 -.00000148  00000-0  00000+0 0  9999
2 36590   1.6235  38.9183 0003401  56.1762  48.8611  1.00272729 32833
BADR-5                  
1 36592U 10025A   19137.80266618  .00000133  00000-0  00000+0 0  9997
2 36592   0.0171 104.3027 0004104 353.4489  92.3777  1.00271813 32955
COMS 1                  
1 36744U 10032A   19137.39224178 -.00000356  00000-0  00000+0 0  9991
2 36744   0.0422  87.5428 0000321 321.9533  94.6287  1.00274617 32706
ARABSAT-5A              
1 36745U 10032B   19137.36716097  .00000141  00000-0  00000+0 0  9996
2 36745   0.0636  39.7380 0004393  45.8030 311.8606  1.00274325 32689
ECHOSTAR 15             
1 36792U 10034A   19137.78591087 -.00000294  00000-0  00000+0 0  9996
2 36792   0.0437 101.0347 0002178 299.6374  55.7813  1.00273342 32452
NILESAT 201             
1 36830U 10037A   19137.36511142 -.00000070  00000-0  00000+0 0  9992
2 36830   0.0527 150.0189 0006003 272.1443 297.0473  1.00271136 32347
RASCOM-QAF 1R           
1 36831U 10037B   19137.79804269  .00000006  00000-0  00000+0 0  9993
2 36831   0.0133 336.6582 0004609  75.7267 113.0163  1.00269813 32343
AEHF-1 (USA 214)        
1 36868U 10039A   19137.17618619  .00000016  00000-0  00000+0 0  9990
2 36868   1.8215 106.3749 0004459 310.9815 244.7236  1.00267481 32483
CHINASAT 6A (ZX 6A)     
1 37150U 10042A   19136.88915987 -.00000367  00000-0  00000-0 0  9995
2 37150   0.0112 232.3085 0000269   7.9792  79.1502  1.00269833 31949
QZS-1 (MICHIBIKI-1)     
1 37158U 10045A   19137.37474306 -.00000101  00000-0  00000+0 0  9991
2 37158  41.3024 149.2392 0756356 270.4261  88.1257  1.00283849 31767
XM-5                    
1 37185U 10053A   19137.80240553 -.00000217  00000-0  00000+0 0  9991
2 37185   0.0199 299.9518 0001060  39.7526  99.1461  1.00270876 31507
BSAT-3B                 
1 37207U 10056B   19137.38866510 -.00000362  00000-0  00000+0 0  9990
2 37207   0.0599 313.9474 0002626  53.5083 117.1138  1.00269830 31325
BEIDOU 6                
1 37210U 10057A   19137.18321126 -.00000126  00000-0  00000+0 0  9990
2 37210   0.7679  42.0856 0000788 173.3567 244.9919  1.00269462 31332
SKYTERRA 1              
1 37218U 10061A   19137.48734376 -.00000133  00000-0  00000+0 0  9999
2 37218   2.4269 345.0011 0001162 356.0916 327.9259  1.00271506 31283
ZHONGXING-20A           
1 37234U 10064A   19137.89513627 -.00000349  00000-0  00000+0 0  9998
2 37234   0.1079  91.6801 0007377 341.8635 253.9692  1.00273470 31089
HYLAS 1                 
1 37237U 10065A   19136.65163149  .00000079  00000-0  00000-0 0  9995
2 37237   0.0318  42.8114 0001976   9.3316  70.3135  1.00273400 31034
INTELSAT 17 (IS-17)     
1 37238U 10065B   19137.46716094 -.00000014  00000-0  00000+0 0  9998
2 37238   0.0177 263.1334 0002681 149.2964  56.6293  1.00271159 30970
EUTELSAT KA-SAT 9A      
1 37258U 10069A   19137.79926399  .00000050  00000-0  00000+0 0  9990
2 37258   0.0210 359.4077 0005556  53.9486 118.5968  1.00271414 30877
HISPASAT 30W-5          
1 37264U 10070A   19137.79149999 -.00000228  00000-0  00000+0 0  9990
2 37264   0.0661 105.7314 0004784 335.9846  48.4359  1.00270452 30725
KOREASAT 6              
1 37265U 10070B   19137.82054955 -.00000374  00000-0  00000+0 0  9994
2 37265   0.0466  98.9674 0002255 291.7632 255.8995  1.00272590 30741
BEIDOU 8                
1 37384U 11013A   19136.74862001 -.00000225  00000-0  10000-3 0  9993
2 37384  58.7361  65.6737 0039608 208.9229 348.3513  1.00265154 29720
INTELSAT NEW DAWN       
1 37392U 11016A   19137.80397472  .00000144  00000-0  00000+0 0  9992
2 37392   0.0408 117.3102 0001032 308.2610 131.8729  1.00272883 29574
YAHSAT 1A               
1 37393U 11016B   19137.73610517  .00000088  00000-0  00000+0 0  9990
2 37393   0.0147 295.5091 0002935 129.7047 127.4176  1.00276245 29612
SBIRS GEO-1 (USA 230)   
1 37481U 11019A   19137.81060465 -.00000023  00000-0  00000+0 0  9991
2 37481   2.5575 331.0829 0002605  81.4145 180.7373  1.00272419 29399
TELSTAR 14R             
1 37602U 11021A   19137.42591484 -.00000292  00000-0  00000+0 0  9994
2 37602   0.0204 356.3035 0003657  35.3574 293.4981  1.00271703 29838
GSAT-8                  
1 37605U 11022A   19136.87520212  .00000072  00000-0  00000-0 0  9993
2 37605   0.0505 104.2282 0003348 201.6750 298.5007  1.00270526 27262
ST-2                    
1 37606U 11022B   19137.81496646 -.00000223  00000-0  00000+0 0  9990
2 37606   0.0041 334.3258 0001801  95.4749 186.8038  1.00271866 29304
CHINASAT 10 (ZX 10)     
1 37677U 11026A   19137.21900501 -.00000365  00000-0  00000+0 0  9993
2 37677   0.0178 267.9087 0002648 234.6565 281.4291  1.00272164 29021
TIANLIAN 1-02           
1 37737U 11032A   19136.82652448 -.00000030  00000-0  00000-0 0  9997
2 37737   2.8477  75.1724 0008721 101.3584 166.1873  1.00269088 28762
GSAT-12                 
1 37746U 11034A   19137.45505163 -.00000176  00000-0  00000+0 0  9990
2 37746   0.0101 119.5947 0020368 322.7845  39.2171  1.00269486 29007
SES-3                   
1 37748U 11035A   19136.62833950 -.00000115  00000-0  00000+0 0  9992
2 37748   0.0469  79.3186 0002424 321.4404 316.4772  1.00270958 28736
KAZSAT-2                
1 37749U 11035B   19137.34632671 -.00000210  00000-0  00000+0 0  9996
2 37749   0.0260 265.2571 0001301 205.1859 335.4865  1.00273026 28626
BEIDOU 9                
1 37763U 11038A   19137.61924336 -.00000021  00000-0  10000-3 0  9992
2 37763  54.4349 189.1454 0061571 223.4168 138.0864  1.00254772 28700
ASTRA 1N                
1 37775U 11041A   19137.80127042  .00000108  00000-0  00000+0 0  9999
2 37775   0.0411   2.7912 0005848  47.2953 132.7597  1.00272548 28455
BSAT-3C (JCSAT-110R)    
1 37776U 11041B   19137.02969692 -.00000363  00000-0  00000+0 0  9993
2 37776   0.0132 336.2406 0000958 144.9673 233.8865  1.00269679 28575
PAKSAT-1R               
1 37779U 11042A   19136.90743959  .00000141  00000-0  00000-0 0  9993
2 37779   0.0026  94.7384 0004011 312.4659 191.7155  1.00269606 28520
CHINASAT 1A (ZX 1A)     
1 37804U 11047A   19137.56716096 -.00000350  00000-0  00000+0 0  9994
2 37804   0.0572  75.8644 0001682 344.6512 148.4619  1.00271937 28120
COSMOS 2473             
1 37806U 11048A   19137.15344325 -.00000120  00000-0  00000+0 0  9999
2 37806   0.0659 102.6333 0003536 333.1847 200.4896  1.00271700 28119
SES-2                   
1 37809U 11049A   19137.80257914 -.00000208  00000-0  00000+0 0  9999
2 37809   0.0190 297.8789 0002946 107.1556  32.1003  1.00272594 28059
ARABSAT-5C              
1 37810U 11049B   19137.80144488  .00000112  00000-0  00000+0 0  9995
2 37810   0.0662  23.0971 0003027  48.4950 112.1326  1.00273775 27961
EUTELSAT 7 WEST A       
1 37816U 11051A   19137.14988715 -.00000073  00000-0  00000+0 0  9997
2 37816   0.0807  46.6747 0005628  97.8942 136.6383  1.00272354 28011
QUETZSAT 1              
1 37826U 11054A   19136.84885687 -.00000254  00000-0  00000-0 0  9993
2 37826   0.0417  80.4754 0002973 332.3729  50.0069  1.00271599 23962
INTELSAT 18 (IS-18)     
1 37834U 11056A   19137.50247586  .00000040  00000-0  00000+0 0  9999
2 37834   0.0215 297.9817 0002986 134.9922 162.8146  1.00270149 27903
EUTELSAT 16A            
1 37836U 11057A   19137.80065976  .00000092  00000-0  00000+0 0  9993
2 37836   0.0704  17.8220 0004954  47.2933 114.3176  1.00272825 27841
VIASAT-1                
1 37843U 11059A   19137.12842712 -.00000036  00000-0  00000+0 0  9998
2 37843   0.0169 308.3004 0002907 107.9267 109.4439  1.00270623 28327
ASIASAT 7               
1 37933U 11069A   19137.02882456 -.00000346  00000-0  00000+0 0  9991
2 37933   0.0610 101.2154 0001793 295.7260 313.3936  1.00271227 27514
BEIDOU 10               
1 37948U 11073A   19136.43174322 -.00000172  00000-0  10000-3 0  9994
2 37948  52.2092 302.5912 0057337 206.7463 334.2997  1.00261487 27441
LUCH 5A                 
1 37951U 11074B   19137.26494852 -.00000054  00000-0  00000+0 0  9998
2 37951   2.4205 129.7628 0004554 262.5071 104.4079  1.00293170 27249
NIGCOMSAT 1R            
1 38014U 11077A   19137.16507729  .00000132  00000-0  00000+0 0  9995
2 38014   0.0581  95.0567 0003306 322.5438 278.8779  1.00271974 27078
FENGYUN 2F              
1 38049U 12002A   19137.81976443 -.00000367  00000-0  00000+0 0  9998
2 38049   1.1746  81.6828 0001924  91.4339 109.1567  1.00263747 26943
WGS F4 (USA 233)        
1 38070U 12003A   19137.09718708 -.00000227  00000-0  00000+0 0  9996
2 38070   0.0162 311.6203 0000513 122.8319 283.4341  1.00269308 26776
SES-4                   
1 38087U 12007A   19137.36231987 -.00000180  00000-0  00000+0 0  9995
2 38087   0.0177 339.5926 0002637  69.3215 294.2953  1.00272028 26536
BEIDOU 11               
1 38091U 12008A   19136.87590000  .00000043  00000-0  00000-0 0  9998
2 38091   1.3602  62.4765 0011084 290.1044 255.8795  1.00272612 26526
MUOS-1                  
1 38093U 12009A   19137.51456811  .00000049  00000-0  00000+0 0  9999
2 38093   2.6646 354.5547 0053389 175.6638  72.9372  1.00274283 26506
INTELSAT 22 (IS-22)     
1 38098U 12011A   19137.45287073 -.00000071  00000-0  00000+0 0  9998
2 38098   0.0007 112.7953 0002581 307.6649  49.5389  1.00272017 26103
APSTAR 7                
1 38107U 12013A   19137.88449348 -.00000113  00000-0  00000+0 0  9990
2 38107   0.0017 356.6928 0002359  57.3287 216.1801  1.00271581 26225
YAHSAT 1B               
1 38245U 12016A   19137.06785633  .00000114  00000-0  00000+0 0  9996
2 38245   0.0137 290.1311 0002563 139.3831 236.9993  1.00270550 25969
AEHF-2 (USA 235)        
1 38254U 12019A   19136.85077606 -.00000287  00000-0  00000-0 0  9992
2 38254   1.5696  27.2318 0005108  31.5445  54.1618  1.00267425 24907
JCSAT-13                
1 38331U 12023A   19137.39145667 -.00000368  00000-0  00000+0 0  9995
2 38331   0.0039 148.3712 0002586 277.4330  73.9220  1.00271872 25621
